ALOS (DAICHI)           
1 28931U 06002A   26020.84639952  .00003189  00000+0  54455-3 0  9993
2 28931  98.1148 337.0726 0002196  84.1587 275.9869 14.69627060 66453
H-2A R/B                
1 28932U 06002B   26020.95175618  .00018921  00000+0  96756-3 0  9990
2 28932  98.2341 163.9349 0054086  44.5900 315.9662 15.15414000 87203
RESURS-DK 1             
1 29228U 06021A   26020.98757230  .00006133  00000+0  35808-3 0  9992
2 29228  69.9346   0.3866 0005207 221.8589 138.2180 15.12416745 80315
CZ-4B R/B               
1 29507U 06046C   26020.97369432  .00013002  00000+0  66298-3 0  9991
2 29507  97.5678  66.0065 0035288  73.8891 286.6222 15.16331715 52819
CZ-2C R/B               
1 31114U 07010B   26020.89002688  .00000254  00000+0  13545-3 0  9990
2 31114  98.3972 136.5709 0060059  73.6187 287.1582 14.20227333972933
COSMOS 2428             
1 31792U 07029A   26020.96007464  .00000474  00000+0  28002-3 0  9995
2 31792  70.9401 303.5365 0006051 331.4267  28.6521 14.12915732957356
SL-16 R/B               
1 31793U 07029B   26020.98808462 -.00000127  00000+0 -41105-4 0  9992
2 31793  70.9747 272.6570 0002068 272.9090 179.1506 14.14822372958626
KORONAS-FOTON           
1 33504U 09003A   26020.89474078  .00020414  00000+0  47605-3 0  9999
2 33504  82.4333 325.5097 0010397 341.2926  18.7937 15.42047562938379
CZ-2C R/B               
1 37731U 11030B   26020.84749368  .00002127  00000+0  27450-3 0  9997
2 37731  97.8467 339.1032 0053488 144.6934 269.4064 14.81031945783010
H-2A R/B                
1 38341U 12025E   26020.87195722  .00006433  00000+0  58605-3 0  9992
2 38341  98.4656 344.1383 0046006 108.3686 252.2544 14.94725203741073
